CSS (TIANHE)            
1 48274U 21035A   23252.77713143  .00034704  00000+0  38685-3 0  9993
2 48274  41.4751   1.4411 0010169 335.4013  24.6340 15.62042717135054
